LEO EXPRESS 1           
1 58301U 23174AX  26068.76789509  .00017303  00000+0  49741-3 0  9998
2 58301  97.5222 152.4092 0078735 115.9210 245.0174 15.32756831129655
STARLINK-30929          
1 58386U 23178N   26068.09487404  .00001554  00000+0  64590-4 0  9991
2 58386  53.1622   4.1069 0000984  85.6529 274.4584 15.30190660129778
